<html>
	<head><meta name="color-scheme" content="light dark"></head>
		0 ONEWEB-0337
		1 49203U 21083T   22249.47537242  .00000209  00000-0  53768-3 0  9998
		2 49203  87.8952 234.3021 0001760  86.8444 273.2887 13.13470604 49797
		0 ONEWEB-0338
		1 49204U 21083U   22249.91667824 -.00026417  00000-0 -27302-2 0  9993
		2 49204  87.2135 201.7988 0005197  77.7216 291.6604 14.90392399 54561
		0 ONEWEB-0339
		1 49205U 21083V   22249.47114732  .00000120  00000-0  29234-3 0  9998
		2 49205  87.8959 234.3016 0001843  72.4182 287.7148 13.13472739 49771
		0 ONEWEB-0340
		1 49206U 21083W   22249.70039711  .00000042  00000-0  73070-4 0  9999
		2 49206  87.9097 249.5103 0001813  90.7730 269.3610 13.18687136 48166
		0 ONEWEB-0341
		1 49207U 21083X   22249.70812484  .00000301  00000-0  72999-3 0  9992
		2 49207  87.9114 249.4387 0001376  65.3791 294.7485 13.18692788 49475
		0 ONEWEB-0342
		1 49208U 21083Y   22250.25001157  .00067147  00000-0  68432-2 0  9999
		2 49208  87.2100 201.5043 0005040  77.1319  91.1433 14.90352911 54628
		0 ONEWEB-0343
		1 49209U 21083Z   22249.70504417  .00000095  00000-0  20747-3 0  9992
		2 49209  87.9107 249.4779 0001509  43.4992 316.6259 13.18686272 49522
		0 ONEWEB-0344
		1 49210U 21083AA  22249.51560743  .00000079  00000-0  18121-3 0  9992
		2 49210  87.8960 234.2967 0001993  90.0961 270.0397 13.13469360 49788
		0 ONEWEB-0345
		1 49211U 21083AB  22249.68592997 -.00000264  00000-0 -75768-3 0  9995
		2 49211  87.8947 234.2502 0001281 100.9820 259.1453 13.13471687 49814
		0 ONEWEB-0346
		1 49212U 21083AC  22249.55947117  .00000056  00000-0  10941-3 0  9999
		2 49212  87.9104 249.4981 0001817 106.2009 253.9323 13.18684725 48151
		0 ONEWEB-0348
		1 49213U 21083AD  22250.25001157  .00064263  00000-0  65526-2 0  9992
		2 49213  87.2124 201.6175 0004908  66.1254  57.5026 14.90349003 54627
		0 ONEWEB-0350
		1 49214U 21083AE  22249.69544441 -.00000134  00000-0 -40278-3 0  9994
		2 49214  87.8952 234.2726 0001565  95.5261 264.6047 13.13473621 49847
		0 ONEWEB-0351
		1 49215U 21083AF  22249.91667824 -.00028202  00000-0 -29159-2 0  9991
		2 49215  87.2054 201.4360 0004422  61.5398 195.1445 14.90386262 54581
		0 ONEWEB-0352
		1 49216U 21083AG  22249.67642210 -.00000313  00000-0 -89284-3 0  9996
		2 49216  87.8957 234.2601 0002219  78.5657 281.5721 13.13470633 49930
		0 ONEWEB-0354
		1 49217U 21083AH  22250.25001157  .00065707  00000-0  66995-2 0  9991
		2 49217  87.2109 201.5366 0004013  73.7588  67.2470 14.90345687 54643
		0 ONEWEB-0355
		1 49218U 21083AJ  22249.70817210  .00000181  00000-0  46189-3 0  9994
		2 49218  87.8961 234.2579 0001792  76.9087 283.2242 13.13472082 49819
		0 ONEWEB-0357
		1 49219U 21083AK  22250.25001157  .00059644  00000-0  60842-2 0  9991
		2 49219  87.2104 201.5258 0005445  76.1772   5.2852 14.90355428 54619
		0 SZ-12 MODULE
		1 49221U 21053C   22249.84806839  .00042146  00000-0  26956-3 0  9992
		2 49221  41.5518  69.4246 0013649 339.5925  20.4374 15.75398519 55603
		0 RESURS O1 DEB
		1 49224U 94074FC  22246.10157412  .00016185  00000-0  14036-2 0  9999
		2 49224  97.8500 296.2248 0003289 150.7244 209.4162 14.97150396 64919
		0 RESURS O1 DEB
		1 49225U 94074FD  22249.37551066  .00017063  00000-0  17451-2 0  9995
		2 49225  97.8811 299.6116 0001446  93.7851 266.3532 14.90609514 59549
		0 RESURS O1 DEB
		1 49226U 94074FE  22248.94720064  .00056276  00000-0  45172-2 0  9994
		2 49226  97.8804 301.1779 0002226 250.0509 110.0474 14.99824306 59605
		0 RESURS O1 DEB
		1 49227U 94074FF  22249.10857559  .00014184  00000-0  15552-2 0  9995
		2 49227  97.9352 300.7984 0005429 213.2709 146.8166 14.87827017 59366
		0 RESURS O1 DEB
		1 49228U 94074FG  22248.87363599  .00025469  00000-0  27182-2 0  9995
		2 49228  97.9009 299.6213 0004020 150.9126 209.2316 14.88791635 59349
		0 RESURS O1 DEB
		1 49229U 94074FH  22249.58682946  .00016750  00000-0  14828-2 0  9991
		2 49229  97.7056 291.8175 0011107 228.1515 131.8759 14.96293372 59632
		0 RESURS O1 DEB
		1 49230U 94074FJ  22249.60614315  .00015498  00000-0  16243-2 0  9992
		2 49230  97.9255 301.9354 0005881 100.0688 260.1193 14.89636649 59010
		0 RESURS O1 DEB
		1 49231U 94074FK  22248.40494908  .00049130  00000-0  45289-2 0  9996
		2 49231  97.8418 298.0750 0003280 108.4904 251.6673 14.94475766 58891
		0 RESURS O1 DEB
		1 49232U 94074FL  22248.86539922  .00034484  00000-0  35259-2 0  9995
		2 49232  97.8860 296.7400 0005142 213.1922 146.8973 14.90443687 62259
		0 RESURS O1 DEB
		1 49233U 94074FM  22247.37638881  .00025220  00000-0  24231-2 0  9991
		2 49233  97.8912 298.1227 0005248 128.1741 231.9952 14.93010658 62133
		0 RESURS O1 DEB
		1 49234U 94074FN  22248.38606914  .00039886  00000-0  36885-2 0  9997
		2 49234  97.8992 298.3344 0001028 109.6522 250.4808 14.94416243 58881
		0 RESURS O1 DEB
		1 49235U 94074FP  22248.41784243  .00046841  00000-0  42082-2 0  9999
		2 49235  97.8987 300.7806 0015160 171.8430 188.3039 14.95422573 52791
		0 RESURS O1 DEB
		1 49236U 94074FQ  22248.94532563  .00038543  00000-0  35406-2 0  9996
		2 49236  97.8836 300.2471 0008755 160.7209 199.4344 14.94662572 58995
		0 RESURS O1 DEB
		1 49237U 94074FR  22250.08552819  .00042646  00000-0  35973-2 0  9999
		2 49237  97.8714 301.6780 0006961 148.5516 211.6123 14.97979588 58095
		0 RESURS O1 DEB
		1 49238U 94074FS  22249.39744727  .00012403  00000-0  13520-2 0  9995
		2 49238  97.9211 300.9495 0007831 273.1843  86.8478 14.88087986 57949
		0 RESURS O1 DEB
		1 49239U 94074FT  22247.37848421  .00013894  00000-0  13485-2 0  9993
		2 49239  97.8898 297.9493 0002167 192.9886 167.1277 14.92754615 57669
		0 RESURS O1 DEB
		1 49240U 94074FU  22247.87825341  .00061079  00000-0  52001-2 0  9991
		2 49240  97.9017 300.3574 0002845 121.1049 239.0452 14.97515776 57822
		0 RESURS O1 DEB
		1 49241U 94074FV  22246.09914824  .00016880  00000-0  15412-2 0  9995
		2 49241  97.9030 298.2319 0015609  87.7949 272.5058 14.95036908 57533
		0 RESURS O1 DEB
		1 49242U 94074FW  22235.94442343  .04610280  00000-0  35578+0 0  9990
		2 49242  97.8476 287.5918 0022533 219.9121 140.0444 14.96476090 55984
		0 RESURS O1 DEB
		1 49243U 94074FX  22245.10420278  .00011886  00000-0  11502-2 0  9990
		2 49243  97.9137 297.1412 0001427 182.7371 177.3840 14.92913056 57360
		0 RESURS O1 DEB
		1 49244U 94074FY  22249.39062592  .00040192  00000-0  36690-2 0  9994
		2 49244  97.9331 302.4388 0005422 127.0954 233.0762 14.94914670 54979
		0 RESURS O1 DEB
		1 49246U 94074GA  22248.96672574  .00023846  00000-0  21987-2 0  9995
		2 49246  97.8904 301.9333 0001140 115.7432 244.3906 14.94662403 54977
		0 NIMBUS 2 DEB
		1 49249U 66040BX  22249.66744674  .00001217  00000-0  25090-2 0  9996
		2 49249 100.4478  44.3607 0050152 280.8433  78.7048 13.34515170 54743
		0 CZ-4B DEB
		1 49250U 99057TD  22249.54028232  .00046132  00000-0  84975-2 0  9996
		2 49250  98.6569 248.3930 0066592 252.5025 106.8890 14.63907198 65767
		0 JILIN-01 GAOFEN 2D
		1 49256U 21086A   22250.08587010  .00003614  00000-0  22161-3 0  9992
		2 49256  97.5543 355.7110 0014935 170.0107 314.5194 15.10688884 52037
		0 SHIYAN 10 (SY-10)
		1 49258U 21087A   22248.74634865  .00000492  00000-0  00000+0 0  9991
		2 49258  63.6676  27.1201 7064469 269.6143  88.0127  2.00649118  6849
		0 CZ-3B R/B
		1 49259U 21087B   22226.18953802  .99999999  14167-4  46680-2 0  9998
		2 49259  51.0773 317.1819 0301394 324.1966 128.3846 15.91918926  8781
		0 LANDSAT 9
		1 49260U 21088A   22249.96965310  .00000233  00000-0  61761-4 0  9991
		2 49260  98.2215 319.1706 0001478  85.4941 274.6426 14.57115635 50147
		0 CS1
		1 49261U 21088B   22249.82422301  .00002044  00000-0  16117-3 0  9991
		2 49261  97.5726 315.3146 0026517 164.1820 196.0239 15.01580014 51591
		0 CS2
		1 49262U 21088C   22249.76692165  .00002290  00000-0  17907-3 0  9993
		2 49262  97.5808 315.5012 0021495 170.2951 189.8693 15.01876095 51591
		0 CUTE-LASP
		1 49263U 21088D   22249.93120298  .00004866  00000-0  35872-3 0  9998
		2 49263  97.5837 316.2251 0020931 145.1213 215.1389 15.03591791 51665
		0 CUPID
		1 49264U 21088E   22249.72948580  .00002855  00000-0  21687-3 0  9993
		2 49264  97.5825 315.8316 0021013 142.8365 217.4320 15.02800408 51627
		0 YUNHAI 1-02 DEB
		1 49265U 19063AR  22247.02681904  .00116951  00000-0  27427-1 0  9998
		2 49265  98.5931 266.1391 0076661 359.9059   0.2108 14.51979130 63401
		0 YUNHAI 1-02 DEB
		1 49266U 19063AS  22249.01772512  .00022141  00000-0  62966-2 0  9991
		2 49266  98.5233 276.8176 0006794 121.9509 238.2343 14.45303924 64403
		0 YUNHAI 1-02 DEB
		1 49267U 19063AT  22249.60653631  .00014883  00000-0  46781-2 0  9998
		2 49267  98.5442 277.1186 0007380  95.2176 264.9855 14.40524023 76346
		0 FREGAT DEB
		1 49271U 11037PF  22249.71127673  .00046758  00000-0  14754+0 0  9998
		2 49271  51.6971  12.8509 0997077 203.3674 151.8678 11.94038657 56868
		0 BINAR-1
		1 49272U 98067SR  22249.46667818  .00281805  40205-4  92695-3 0  9992
		2 49272  51.6256 262.7890 0005555  27.5086 332.6213 15.89996160 52464
		0 CUAVA-1
		1 49275U 98067SU  22242.48134796  .24583722  12476-4  25807-3 0  9993
		2 49275  51.6069 289.8805 0011981 165.6488 331.0164 16.49780575 51426
		0 CAPSAT
		1 49276U 98067SV  22250.02978249  .00591166  16485-3  11517-2 0  9992
		2 49276  51.6299 258.3166 0006472  34.6696 325.4735 15.99626392 51632
		0 PRCUNAR2
		1 49277U 98067SW  22242.28288402  .14112517  12549-4  46195-3 0  9990
		2 49277  51.6027 292.5146 0003041 290.7673  69.3029 16.44775269 50457
		0 ONEWEB-0332
		1 49279U 21090A   22249.91667824 -.00018509  00000-0 -50052-1 0  9993
		2 49279  87.9093 203.8899 0002474  68.5767  57.1300 13.14512791 46374
		0 ONEWEB-0347
		1 49280U 21090B   22250.25001157  .00054807  00000-0  20420-1 0  9990
		2 49280  87.6980 194.9893 0001317 169.5224 191.4717 14.31651741 47944
		0 ONEWEB-0349
		1 49281U 21090C   22249.91667824 -.00036769  00000-0 -90804-1 0  9993
		2 49281  87.9355 188.8664 0001506  85.1583 216.2011 13.20791087  1301
		
	</pre>
</body>
</html>